{"type":"FeatureCollection","properties":{"source":"Vermont Open Geodata Portal - Fishing Access Areas (VT ANR / Fish & Wildlife)","fetched":"2026-09-24","bbox":[-73.1,43.95,-72.2,44.6]},"features":[{"type":"Feature","properties":{"name":"Coits Pond","waterbody":"Coits Pond","town":"Cabot","owner":"F&W","access_type":"Boating/Fishing","ramp":"None","trout":[],"location":null},"geometry":{"type":"Point","coordinates":[-72.3253,44.4439]}},{"type":"Feature","properties":{"name":"Curtis Pond","waterbody":"Curtis Pond","town":"Calais","owner":"F&W","access_type":"Boating/Fishing","ramp":"Gravel","trout":[],"location":null},"geometry":{"type":"Point","coordinates":[-72.5007,44.3765]}},{"type":"Feature","properties":{"name":"Fosters Pond","waterbody":"Foster Pond","town":"Peacham","owner":"F&W","access_type":"Boating/Fishing","ramp":"Concrete Plank","trout":[],"location":null},"geometry":{"type":"Point","coordinates":[-72.2146,44.3294]}},{"type":"Feature","properties":{"name":"Greenwood Lake","waterbody":"Greenwood Lake","town":"Woodbury","owner":"F&W","access_type":"Boating/Fishing","ramp":"Concrete Plank","trout":["BrownTrout"],"location":null},"geometry":{"type":"Point","coordinates":[-72.4205,44.4551]}},{"type":"Feature","properties":{"name":"Joe's Pond","waterbody":"Joe's Pond","town":"Danville","owner":"F&W","access_type":"Boating/Fishing","ramp":"Concrete","trout":["BrownTrout","RainbowTrout"],"location":null},"geometry":{"type":"Point","coordinates":[-72.2183,44.4036]}},{"type":"Feature","properties":{"name":"Vaughn M. Douglass","waterbody":"Lake Elmore","town":"Elmore","owner":"F&W","access_type":"Boating/Fishing","ramp":"Concrete","trout":[],"location":null},"geometry":{"type":"Point","coordinates":[-72.5213,44.527]}},{"type":"Feature","properties":{"name":"Lake Iroquois","waterbody":"Lake Iroquois","town":"Williston","owner":"F&W","access_type":"Boating/Fishing","ramp":"Concrete Plank","trout":[],"location":null},"geometry":{"type":"Point","coordinates":[-73.0902,44.3771]}},{"type":"Feature","properties":{"name":"Lamoille River - Rotary","waterbody":"Lamoille River","town":"Morristown","owner":"F&W","access_type":"Shore Fishing","ramp":"None","trout":["BrookTrout","BrownTrout","RainbowTrout"],"location":null},"geometry":{"type":"Point","coordinates":[-72.5495,44.5674]}},{"type":"Feature","properties":{"name":"Lyford Pond","waterbody":"Lyford Pond","town":"Walden","owner":"F&W","access_type":"Boating/Fishing","ramp":"None","trout":[],"location":null},"geometry":{"type":"Point","coordinates":[-72.2469,44.4468]}},{"type":"Feature","properties":{"name":"Marshfield Dam","waterbody":"Mollys Falls Reservoir","town":"Cabot","owner":"Lease","access_type":"Boating/Fishing","ramp":"Concrete","trout":["BrownTrout","RainbowTrout"],"location":null},"geometry":{"type":"Point","coordinates":[-72.3032,44.3631]}},{"type":"Feature","properties":{"name":"Hardwick Lake","waterbody":"Hardwick Lake","town":"Hardwick","owner":"F&W","access_type":"Boating/Fishing","ramp":"Gravel","trout":[],"location":null},"geometry":{"type":"Point","coordinates":[-72.3736,44.5358]}},{"type":"Feature","properties":{"name":"Martins Pond","waterbody":"Martins Pond","town":"Peacham","owner":"F&W","access_type":"Boating/Fishing","ramp":"Concrete Plank","trout":["BrookTrout"],"location":null},"geometry":{"type":"Point","coordinates":[-72.2056,44.3042]}},{"type":"Feature","properties":{"name":"Mirror Lake","waterbody":"Mirror Lake","town":"Calais","owner":"F&W","access_type":"Boating/Fishing","ramp":"Concrete Plank","trout":["RainbowTrout"],"location":null},"geometry":{"type":"Point","coordinates":[-72.4475,44.3913]}},{"type":"Feature","properties":{"name":"Nelson Pond","waterbody":"Nelson Pond","town":"Woodbury","owner":"F&W","access_type":"Boating/Fishing","ramp":"Gravel","trout":["BrownTrout","RainbowTrout"],"location":null},"geometry":{"type":"Point","coordinates":[-72.4468,44.4098]}},{"type":"Feature","properties":{"name":"North Montpelier Pond","waterbody":"North Montpelier Pond","town":"E. Montpelier","owner":"F&W","access_type":"Boating/Fishing","ramp":"Gravel","trout":[],"location":null},"geometry":{"type":"Point","coordinates":[-72.4464,44.3061]}},{"type":"Feature","properties":{"name":"Peacham Pond","waterbody":"Peacham Pond","town":"Peacham","owner":"F&W","access_type":"Boating/Fishing","ramp":"Gravel","trout":["BrownTrout"],"location":null},"geometry":{"type":"Point","coordinates":[-72.2654,44.3336]}},{"type":"Feature","properties":{"name":"Baker Pond (Brookfield)","waterbody":"Baker Pond","town":"Brookfield","owner":"F&W","access_type":"Boating/Fishing","ramp":"Gravel","trout":["BrookTrout"],"location":null},"geometry":{"type":"Point","coordinates":[-72.6347,44.0698]}},{"type":"Feature","properties":{"name":"Rood Pond","waterbody":"Rood Pond","town":"Williamstown","owner":"F&W","access_type":"Boating/Fishing","ramp":"Concrete Plank","trout":["BrookTrout"],"location":null},"geometry":{"type":"Point","coordinates":[-72.5882,44.0779]}},{"type":"Feature","properties":{"name":"Valley Lake","waterbody":"Valley Lake","town":"Woodbury","owner":"F&W","access_type":"Boating/Fishing","ramp":"Gravel","trout":[],"location":null},"geometry":{"type":"Point","coordinates":[-72.4471,44.4436]}},{"type":"Feature","properties":{"name":"Ward","waterbody":"Mad River","town":"Moretown","owner":"F&W","access_type":"Shore Fishing","ramp":"None","trout":["BrownTrout","RainbowTrout"],"location":null},"geometry":{"type":"Point","coordinates":[-72.7244,44.2904]}},{"type":"Feature","properties":{"name":"West Hill Pond","waterbody":"West Hill Pond","town":"Cabot","owner":"F&W","access_type":"Boating/Fishing","ramp":"None","trout":[],"location":null},"geometry":{"type":"Point","coordinates":[-72.3428,44.4142]}},{"type":"Feature","properties":{"name":"Bristol Pond","waterbody":"Bristol Pond","town":"Bristol","owner":"F&W","access_type":"Boating/Fishing","ramp":"Concrete","trout":[],"location":null},"geometry":{"type":"Point","coordinates":[-73.0998,44.1819]}},{"type":"Feature","properties":{"name":"Wolcott Pond","waterbody":"Wolcott Pond","town":"Wolcott","owner":"F&W","access_type":"Boating/Fishing","ramp":"Concrete Plank","trout":[],"location":null},"geometry":{"type":"Point","coordinates":[-72.4271,44.5665]}},{"type":"Feature","properties":{"name":"Sabin Pond","waterbody":"Sabin Pond","town":"Woodbury","owner":"F&W","access_type":"Boating/Fishing","ramp":"Concrete","trout":["BrownTrout","RainbowTrout"],"location":null},"geometry":{"type":"Point","coordinates":[-72.4139,44.4074]}},{"type":"Feature","properties":{"name":"Buck Lake","waterbody":"Buck Lake","town":"Woodbury","owner":"F&W","access_type":"Boating/Fishing","ramp":"Gravel","trout":["BrookTrout"],"location":null},"geometry":{"type":"Point","coordinates":[-72.3966,44.4671]}},{"type":"Feature","properties":{"name":"Fisher Bridge","waterbody":"Lamoille River","town":"Wolcott","owner":"F&W","access_type":"Shore Fishing","ramp":"None","trout":["BrownTrout","RainbowTrout"],"location":null},"geometry":{"type":"Point","coordinates":[-72.4278,44.5326]}},{"type":"Feature","properties":{"name":"New Haven Fishing Platform","waterbody":"New Haven River","town":"Bristol","owner":"Town","access_type":"Shore Fishing","ramp":"None","trout":["BrookTrout","RainbowTrout"],"location":null},"geometry":{"type":"Point","coordinates":[-73.0342,44.1233]}},{"type":"Feature","properties":{"name":"Lewis Creek at Tyler Bridge","waterbody":"Lewis Creek","town":"Monkton","owner":"F&W","access_type":"Boating/Fishing","ramp":"None","trout":[],"location":null},"geometry":{"type":"Point","coordinates":[-73.0814,44.2773]}},{"type":"Feature","properties":{"name":"Upper Lamoille River","waterbody":"Lamoille River","town":"Wolcott","owner":"F&W","access_type":"Boating/Fishing","ramp":"Steps","trout":[],"location":null},"geometry":{"type":"Point","coordinates":[-72.4787,44.5516]}},{"type":"Feature","properties":{"name":"Berlin Pond","waterbody":"Berlin Pond","town":"Berlin","owner":"Municipality","access_type":"Boating/Fishing","ramp":"Steps","trout":[],"location":null},"geometry":{"type":"Point","coordinates":[-72.5822,44.2088]}}]}