{"type":"FeatureCollection","properties":{"source":"USGS Watershed Boundary Dataset, 10-digit HU (as published on the Vermont Open Geodata Portal)","fetched":"2026-09-24","bbox":[-73.1,43.95,-72.2,44.6]},"features":[{"type":"Feature","properties":{"huc10":"0430010303","name":"North Branch Winooski River","areasqkm":201.58,"core":false,"contains":["Martins Brook","Herrick Brook"]},"geometry":{"type":"Polygon","coordinates":[[[-72.54192,44.49496],[-72.54239,44.49676],[-72.54497,44.49926],[-72.54418,44.50115],[-72.54564,44.50202],[-72.54691,44.50218],[-72.54684,44.50156],[-72.54798,44.501],[-72.54818,44.50044],[-72.5475,44.49856],[-72.54841,44.49685],[-72.54844,44.49587],[-72.54934,44.4953],[-72.54869,44.4941],[-72.54997,44.49331],[-72.55067,44.49209],[-72.55043,44.49152],[-72.55298,44.48921],[-72.55312,44.48805],[-72.5542,44.48765],[-72.55523,44.4858],[-72.55808,44.48545],[-72.5596,44.48437],[-72.56057,44.48256],[-72.56017,44.48137],[-72.5607,44.47952],[-72.56221,44.47842],[-72.56253,44.47736],[-72.5647,44.47667],[-72.56516,44.47487],[-72.56566,44.4746],[-72.5663,44.47297],[-72.5675,44.47246],[-72.56839,44.4698],[-72.56902,44.4699],[-72.57126,44.46836],[-72.57115,44.46739],[-72.5719,44.46659],[-72.57212,44.46571],[-72.57361,44.46455],[-72.57393,44.46293],[-72.57439,44.46288],[-72.57605,44.4637],[-72.57704,44.46324],[-72.57924,44.46358],[-72.57963,44.46308],[-72.58059,44.4629],[-72.58156,44.46117],[-72.58167,44.4597],[-72.58128,44.45858],[-72.58195,44.45648],[-72.58551,44.45308],[-72.586,44.45008],[-72.58679,44.44862],[-72.59188,44.44343],[-72.59277,44.44325],[-72.5962,44.44111],[-72.60088,44.43929],[-72.60144,44.4386],[-72.605,44.43754],[-72.60558,44.43682],[-72.60833,44.43601],[-72.60997,44.43501],[-72.61273,44.4327],[-72.61264,44.4308],[-72.61813,44.42992],[-72.62433,44.42812],[-72.62629,44.42694],[-72.62928,44.4258],[-72.63154,44.42427],[-72.63475,44.42269],[-72.63513,44.422],[-72.63713,44.42088],[-72.63848,44.4185],[-72.63952,44.4175],[-72.63984,44.41644],[-72.64102,44.41513],[-72.64117,44.41466],[-72.64075,44.41281],[-72.64283,44.41053],[-72.64372,44.40896],[-72.64381,44.40808],[-72.64314,44.40677],[-72.64333,44.40643],[-72.64288,44.40404],[-72.64393,44.40226],[-72.64408,44.40171],[-72.64343,44.40097],[-72.6437,44.39943],[-72.64511,44.39584],[-72.64549,44.39548],[-72.64702,44.3952],[-72.64749,44.39409],[-72.64874,44.39431],[-72.65011,44.39347],[-72.65092,44.39249],[-72.65128,44.39059],[-72.65226,44.3896],[-72.65362,44.38896],[-72.65456,44.3881],[-72.6579,44.3847],[-72.65804,44.38398],[-72.66003,44.38222],[-72.66026,44.38125],[-72.6611,44.38073],[-72.66207,44.37877],[-72.6617,44.37721],[-72.66362,44.37507],[-72.66252,44.37312],[-72.66266,44.37241],[-72.66346,44.37142],[-72.6635,44.37019],[-72.66272,44.36898],[-72.66127,44.36782],[-72.66025,44.36619],[-72.65908,44.36529],[-72.66115,44.36376],[-72.66077,44.36123],[-72.66182,44.36],[-72.66208,44.35916],[-72.66122,44.35802],[-72.66058,44.35621],[-72.65934,44.35451],[-72.6586,44.35436],[-72.65599,44.35213],[-72.65316,44.35219],[-72.65101,44.35349],[-72.65008,44.35257],[-72.64832,44.35186],[-72.64783,44.35033],[-72.64694,44.34942],[-72.64509,44.34896],[-72.64419,44.34824],[-72.64302,44.34862],[-72.64108,44.34828],[-72.63895,44.34842],[-72.6374,44.34773],[-72.63564,44.3478],[-72.63386,44.34737],[-72.63166,44.34591],[-72.6308,44.34463],[-72.6283,44.34325],[-72.6262,44.34133],[-72.62503,44.33943],[-72.62309,44.33866],[-72.62145,44.33659],[-72.62085,44.33524],[-72.6196,44.33526],[-72.61824,44.33471],[-72.6167,44.33219],[-72.61565,44.33142],[-72.61548,44.33084],[-72.61638,44.32921],[-72.61634,44.32815],[-72.61469,44.32664],[-72.61376,44.32464],[-72.61545,44.32334],[-72.61673,44.32317],[-72.61757,44.3226],[-72.61785,44.32176],[-72.6175,44.32003],[-72.62091,44.3172],[-72.62089,44.31633],[-72.61963,44.31497],[-72.61926,44.31366],[-72.62407,44.31198],[-72.62548,44.31025],[-72.6243,44.30846],[-72.62345,44.30615],[-72.6232,44.30432],[-72.61526,44.30135],[-72.61349,44.30034],[-72.61268,44.29855],[-72.61042,44.29644],[-72.61081,44.29277],[-72.60937,44.29158],[-72.60929,44.29033],[-72.60821,44.28981],[-72.6078,44.28898],[-72.60609,44.28736],[-72.60637,44.28688],[-72.60632,44.28596],[-72.60585,44.28484],[-72.6037,44.28317],[-72.60241,44.28123],[-72.60167,44.28097],[-72.59774,44.28098],[-72.5973,44.28108],[-72.59713,44.28148],[-72.5924,44.28188],[-72.58769,44.2803],[-72.58534,44.27891],[-72.58305,44.27832],[-72.58295,44.27798],[-72.58359,44.27726],[-72.58528,44.2765],[-72.58486,44.27443],[-72.58417,44.2738],[-72.5826,44.27351],[-72.58196,44.27284],[-72.58264,44.27216],[-72.58218,44.27058],[-72.58048,44.2686],[-72.57948,44.26575],[-72.57817,44.26541],[-72.57766,44.26489],[-72.57785,44.26408],[-72.57732,44.26252],[-72.57814,44.25903],[-72.57377,44.25871],[-72.57178,44.25888],[-72.56986,44.25848],[-72.56872,44.25801],[-72.56659,44.25568],[-72.56185,44.25813],[-72.5594,44.26038],[-72.55882,44.26337],[-72.56037,44.26537],[-72.56065,44.26637],[-72.5597,44.27138],[-72.56045,44.27338],[-72.56022,44.27533],[-72.56111,44.27632],[-72.56101,44.27667],[-72.56039,44.2776],[-72.559,44.27841],[-72.55783,44.28152],[-72.55554,44.2855],[-72.552,44.28635],[-72.55174,44.28725],[-72.55008,44.28836],[-72.55062,44.28946],[-72.55041,44.28989],[-72.54774,44.29171],[-72.54715,44.29311],[-72.5463,44.29408],[-72.54649,44.29587],[-72.54766,44.29678],[-72.54577,44.29973],[-72.54601,44.30178],[-72.54554,44.30302],[-72.54614,44.30392],[-72.54592,44.30494],[-72.54711,44.30617],[-72.54778,44.30788],[-72.54778,44.30872],[-72.54683,44.30947],[-72.54679,44.31073],[-72.54547,44.31323],[-72.5432,44.31264],[-72.54143,44.31298],[-72.54023,44.31488],[-72.5405,44.31664],[-72.53886,44.31989],[-72.53778,44.31987],[-72.53748,44.32016],[-72.53733,44.32294],[-72.5377,44.32399],[-72.53553,44.32767],[-72.53575,44.32836],[-72.53501,44.33136],[-72.53616,44.33198],[-72.53606,44.3329],[-72.53535,44.33426],[-72.53382,44.33937],[-72.53119,44.34462],[-72.52921,44.34743],[-72.52628,44.35309],[-72.52436,44.35433],[-72.5236,44.35597],[-72.52166,44.35857],[-72.52076,44.36061],[-72.52231,44.36131],[-72.5237,44.36252],[-72.52331,44.36402],[-72.52287,44.36458],[-72.5217,44.36513],[-72.52109,44.36486],[-72.51964,44.36665],[-72.51807,44.36767],[-72.51624,44.37133],[-72.51549,44.37383],[-72.51464,44.37469],[-72.512,44.37614],[-72.50961,44.37873],[-72.50751,44.38312],[-72.50578,44.38597],[-72.50434,44.38724],[-72.50273,44.38966],[-72.50224,44.39076],[-72.5021,44.39254],[-72.50046,44.39299],[-72.49679,44.39668],[-72.4971,44.39758],[-72.49664,44.39854],[-72.49479,44.39981],[-72.49389,44.4012],[-72.4951,44.40147],[-72.49526,44.40484],[-72.49614,44.40674],[-72.49957,44.40794],[-72.50127,44.40819],[-72.50266,44.40913],[-72.50477,44.40909],[-72.50506,44.40934],[-72.50501,44.40983],[-72.50421,44.4112],[-72.503,44.41243],[-72.49976,44.41414],[-72.498,44.41725],[-72.49667,44.41843],[-72.4959,44.42063],[-72.49247,44.42365],[-72.4916,44.42505],[-72.49161,44.42609],[-72.49005,44.4271],[-72.48765,44.42945],[-72.48502,44.43065],[-72.48554,44.43211],[-72.4854,44.43478],[-72.48659,44.43575],[-72.48763,44.43613],[-72.48871,44.43515],[-72.4899,44.43501],[-72.49095,44.43551],[-72.49187,44.43642],[-72.49201,44.43681],[-72.49137,44.43957],[-72.49073,44.44085],[-72.49018,44.44319],[-72.49049,44.44386],[-72.49163,44.44443],[-72.4909,44.44653],[-72.49074,44.44981],[-72.49104,44.45045],[-72.4918,44.45085],[-72.4919,44.45156],[-72.49286,44.45159],[-72.49321,44.4519],[-72.49305,44.45322],[-72.49215,44.45423],[-72.49183,44.45643],[-72.49249,44.45684],[-72.49321,44.45829],[-72.49333,44.4601],[-72.49246,44.46102],[-72.49196,44.46222],[-72.49036,44.46338],[-72.4899,44.46513],[-72.49135,44.46635],[-72.49137,44.4666],[-72.49041,44.46713],[-72.49074,44.46866],[-72.49173,44.46894],[-72.49314,44.46878],[-72.49449,44.47127],[-72.49408,44.47174],[-72.49023,44.47367],[-72.48905,44.47495],[-72.48824,44.47538],[-72.48776,44.4764],[-72.48848,44.47756],[-72.48997,44.47788],[-72.49188,44.47878],[-72.49324,44.48048],[-72.49361,44.48171],[-72.49476,44.48333],[-72.4955,44.48373],[-72.49677,44.4835],[-72.49784,44.48473],[-72.4993,44.48575],[-72.50057,44.48772],[-72.5003,44.48951],[-72.50055,44.49007],[-72.50344,44.49123],[-72.50372,44.49177],[-72.50339,44.49229],[-72.50592,44.49284],[-72.50808,44.49257],[-72.51026,44.493],[-72.512,44.49196],[-72.51282,44.4921],[-72.51171,44.49413],[-72.51184,44.49535],[-72.51307,44.49641],[-72.51523,44.49735],[-72.51825,44.49775],[-72.52115,44.49903],[-72.522,44.49791],[-72.52414,44.49647],[-72.52666,44.4918],[-72.52745,44.4909],[-72.53098,44.49032],[-72.53136,44.48977],[-72.53123,44.48869],[-72.5332,44.48852],[-72.53461,44.48851],[-72.53431,44.49041],[-72.53719,44.49099],[-72.53657,44.49229],[-72.53692,44.49357],[-72.53881,44.49402],[-72.54042,44.49526],[-72.54137,44.49484],[-72.54192,44.49496]]]}},{"type":"Feature","properties":{"huc10":"0430010306","name":"Little River-Winooski River","areasqkm":527.82,"core":false,"contains":["Crossett Brook","Thatcher Brook","Little River - West Branch","Ranch Brook"]},"geometry":{"type":"Polygon","coordinates":[[[-72.74881,44.56101],[-72.75135,44.5626],[-72.75611,44.56346],[-72.75884,44.56123],[-72.76096,44.55704],[-72.76092,44.55611],[-72.76593,44.556],[-72.76803,44.5553],[-72.76935,44.5553],[-72.77107,44.55565],[-72.77119,44.55656],[-72.77174,44.55676],[-72.77437,44.55719],[-72.77594,44.55713],[-72.77634,44.55688],[-72.77712,44.554],[-72.77791,44.55306],[-72.77966,44.55201],[-72.78285,44.55093],[-72.78464,44.55163],[-72.7877,44.55202],[-72.79232,44.55361],[-72.79517,44.55498],[-72.79644,44.55643],[-72.79792,44.55696],[-72.80314,44.55694],[-72.80397,44.55595],[-72.80564,44.555],[-72.8068,44.5537],[-72.80849,44.55267],[-72.80978,44.54951],[-72.81099,44.54873],[-72.81131,44.54778],[-72.81127,44.54727],[-72.8105,44.54703],[-72.81034,44.54642],[-72.8108,44.546],[-72.81247,44.54578],[-72.81327,44.54522],[-72.81458,44.54351],[-72.81548,44.54286],[-72.81565,44.54169],[-72.81688,44.53978],[-72.81675,44.53844],[-72.81746,44.53549],[-72.81685,44.53298],[-72.81698,44.53047],[-72.81541,44.52615],[-72.81588,44.52455],[-72.81866,44.52036],[-72.81871,44.51916],[-72.81793,44.51636],[-72.81823,44.51471],[-72.82034,44.51162],[-72.82313,44.5089],[-72.82259,44.50693],[-72.82131,44.50508],[-72.82155,44.50213],[-72.82207,44.50141],[-72.82171,44.50033],[-72.82093,44.49968],[-72.82003,44.49963],[-72.82023,44.49873],[-72.82153,44.49733],[-72.82196,44.49568],[-72.82188,44.49419],[-72.8242,44.49356],[-72.82822,44.49331],[-72.82906,44.49306],[-72.83046,44.49192],[-72.83055,44.48991],[-72.82971,44.48558],[-72.8302,44.4848],[-72.83096,44.48445],[-72.83295,44.48477],[-72.83317,44.48395],[-72.83291,44.48318],[-72.83341,44.48162],[-72.83175,44.47966],[-72.83575,44.47905],[-72.84061,44.47897],[-72.84135,44.47871],[-72.84022,44.47718],[-72.83932,44.47501],[-72.83913,44.47084],[-72.83985,44.4689],[-72.84023,44.46632],[-72.84103,44.46497],[-72.8405,44.46425],[-72.83873,44.46331],[-72.8384,44.46238],[-72.83736,44.46146],[-72.83695,44.46003],[-72.83759,44.45776],[-72.83982,44.45408],[-72.84029,44.45093],[-72.83962,44.44952],[-72.83978,44.44819],[-72.84432,44.44457],[-72.84546,44.44227],[-72.85001,44.43894],[-72.85108,44.43659],[-72.85444,44.43526],[-72.85598,44.43512],[-72.8581,44.43557],[-72.86268,44.43511],[-72.86475,44.43556],[-72.86599,44.43478],[-72.86826,44.43445],[-72.87201,44.43449],[-72.87475,44.43341],[-72.87705,44.43138],[-72.88159,44.4306],[-72.88299,44.42999],[-72.88566,44.43029],[-72.88802,44.42934],[-72.88902,44.42948],[-72.8911,44.4309],[-72.89377,44.43191],[-72.89722,44.43256],[-72.89929,44.4326],[-72.89987,44.43135],[-72.89987,44.42962],[-72.90116,44.42723],[-72.90081,44.42486],[-72.90154,44.42238],[-72.90242,44.42074],[-72.90305,44.41995],[-72.9059,44.41816],[-72.90675,44.41725],[-72.90675,44.4135],[-72.90797,44.41167],[-72.91101,44.40921],[-72.91245,44.40876],[-72.91473,44.40576],[-72.91519,44.40472],[-72.91792,44.4031],[-72.91869,44.40104],[-72.91993,44.39952],[-72.91967,44.39722],[-72.92051,44.39511],[-72.92226,44.39344],[-72.92254,44.3928],[-72.92431,44.39269],[-72.92561,44.39197],[-72.92713,44.38963],[-72.93079,44.3861],[-72.93151,44.38451],[-72.93221,44.38388],[-72.9368,44.38361],[-72.93784,44.38399],[-72.93897,44.38314],[-72.93945,44.38008],[-72.93639,44.37831],[-72.93331,44.37428],[-72.9324,44.37272],[-72.93167,44.36998],[-72.93045,44.36739],[-72.93085,44.36482],[-72.93181,44.36395],[-72.93232,44.36261],[-72.9322,44.36089],[-72.93195,44.3603],[-72.93101,44.35959],[-72.93043,44.35775],[-72.9307,44.35453],[-72.93225,44.35174],[-72.93276,44.35144],[-72.93264,44.34994],[-72.93292,44.34893],[-72.93518,44.34819],[-72.93578,44.34604],[-72.93571,44.34508],[-72.93344,44.3437],[-72.93287,44.33987],[-72.93337,44.33704],[-72.9304,44.33438],[-72.9294,44.33241],[-72.92592,44.33179],[-72.92432,44.32812],[-72.92388,44.32576],[-72.92221,44.32443],[-72.91986,44.32417],[-72.91665,44.32292],[-72.91173,44.3228],[-72.91035,44.32212],[-72.90777,44.3201],[-72.90745,44.31935],[-72.90299,44.31933],[-72.90031,44.31965],[-72.89166,44.32202],[-72.88898,44.32192],[-72.88679,44.32095],[-72.8864,44.32052],[-72.88648,44.31966],[-72.88591,44.31909],[-72.88562,44.31717],[-72.88636,44.3147],[-72.88529,44.31221],[-72.88556,44.30952],[-72.88298,44.30685],[-72.88198,44.30362],[-72.87988,44.3025],[-72.87928,44.30035],[-72.87978,44.29744],[-72.88043,44.29674],[-72.8819,44.29626],[-72.88249,44.295],[-72.88366,44.29381],[-72.88186,44.29352],[-72.88116,44.29096],[-72.87951,44.29038],[-72.87416,44.28957],[-72.87275,44.28908],[-72.87236,44.28853],[-72.86978,44.28783],[-72.8674,44.28615],[-72.86507,44.28522],[-72.86416,44.28453],[-72.86238,44.28613],[-72.8619,44.28739],[-72.86078,44.2889],[-72.8594,44.28972],[-72.85433,44.28977],[-72.85319,44.28933],[-72.8506,44.28758],[-72.84823,44.29006],[-72.84702,44.29068],[-72.84456,44.29095],[-72.84211,44.29174],[-72.84078,44.29314],[-72.83821,44.29345],[-72.83285,44.29249],[-72.83008,44.29416],[-72.82557,44.29527],[-72.82259,44.29657],[-72.8197,44.29508],[-72.81667,44.29219],[-72.81279,44.29041],[-72.80673,44.29175],[-72.80294,44.29293],[-72.8011,44.29409],[-72.79938,44.2957],[-72.79806,44.29615],[-72.79587,44.29644],[-72.79304,44.2958],[-72.79026,44.29691],[-72.78866,44.29702],[-72.78796,44.29686],[-72.7856,44.29505],[-72.78308,44.2938],[-72.78097,44.29351],[-72.7794,44.29368],[-72.77816,44.29228],[-72.77725,44.29192],[-72.77022,44.29204],[-72.76592,44.29437],[-72.76495,44.29304],[-72.76382,44.29241],[-72.76099,44.29155],[-72.75925,44.29168],[-72.75876,44.29208],[-72.75683,44.2903],[-72.75462,44.2899],[-72.75342,44.29022],[-72.75193,44.29168],[-72.7515,44.29277],[-72.74947,44.29433],[-72.74805,44.29631],[-72.74795,44.29758],[-72.74695,44.29832],[-72.74688,44.29986],[-72.74473,44.30093],[-72.74046,44.30091],[-72.73832,44.30232],[-72.7377,44.30344],[-72.73468,44.3031],[-72.73357,44.30341],[-72.73213,44.30328],[-72.7305,44.3023],[-72.72566,44.30054],[-72.72336,44.30147],[-72.72282,44.30243],[-72.72119,44.30345],[-72.71853,44.30388],[-72.71683,44.30382],[-72.71554,44.30282],[-72.71399,44.30291],[-72.71378,44.30345],[-72.71311,44.30371],[-72.71139,44.30383],[-72.71082,44.30278],[-72.70863,44.30216],[-72.70712,44.30232],[-72.70608,44.30119],[-72.70399,44.30049],[-72.70205,44.30103],[-72.69908,44.30125],[-72.69829,44.30053],[-72.69783,44.29935],[-72.69617,44.29871],[-72.69486,44.29946],[-72.69304,44.29952],[-72.69034,44.29827],[-72.68858,44.29818],[-72.68765,44.29713],[-72.68702,44.29696],[-72.68461,44.29865],[-72.68306,44.29844],[-72.68256,44.29803],[-72.6805,44.30018],[-72.67598,44.29997],[-72.67348,44.30055],[-72.67277,44.30131],[-72.6728,44.30217],[-72.67351,44.30332],[-72.67272,44.30586],[-72.67055,44.30779],[-72.66752,44.30838],[-72.66701,44.30977],[-72.66505,44.31269],[-72.66722,44.3143],[-72.66816,44.3167],[-72.66812,44.31736],[-72.66885,44.31874],[-72.6744,44.32611],[-72.67457,44.3287],[-72.67509,44.33069],[-72.6743,44.33268],[-72.6744,44.33437],[-72.67474,44.33527],[-72.67591,44.33554],[-72.67713,44.33785],[-72.677,44.33826],[-72.67542,44.33851],[-72.67442,44.33911],[-72.67195,44.34159],[-72.67106,44.34273],[-72.67157,44.34515],[-72.669,44.34735],[-72.66714,44.35001],[-72.66555,44.35069],[-72.6629,44.35276],[-72.65934,44.35451],[-72.66058,44.35621],[-72.66122,44.35802],[-72.66208,44.35916],[-72.66182,44.36],[-72.66077,44.36123],[-72.66115,44.36376],[-72.65908,44.36529],[-72.66025,44.36619],[-72.66127,44.36782],[-72.66272,44.36898],[-72.6635,44.37019],[-72.66346,44.37142],[-72.66266,44.37241],[-72.66252,44.37312],[-72.66362,44.37507],[-72.6617,44.37721],[-72.66207,44.37877],[-72.6611,44.38073],[-72.66026,44.38125],[-72.66003,44.38222],[-72.65804,44.38398],[-72.6579,44.3847],[-72.65456,44.3881],[-72.65362,44.38896],[-72.65226,44.3896],[-72.65128,44.39059],[-72.65092,44.39249],[-72.65011,44.39347],[-72.64874,44.39431],[-72.64749,44.39409],[-72.64702,44.3952],[-72.64549,44.39548],[-72.64511,44.39584],[-72.6437,44.39943],[-72.64343,44.40097],[-72.64408,44.40171],[-72.64393,44.40226],[-72.64288,44.40404],[-72.64333,44.40643],[-72.64314,44.40677],[-72.64381,44.40808],[-72.64372,44.40896],[-72.64283,44.41053],[-72.64075,44.41281],[-72.64117,44.41466],[-72.64086,44.41544],[-72.63984,44.41644],[-72.63952,44.4175],[-72.63848,44.4185],[-72.63713,44.42088],[-72.63513,44.422],[-72.63475,44.42269],[-72.63154,44.42427],[-72.62928,44.4258],[-72.6233,44.42852],[-72.61813,44.42992],[-72.61264,44.4308],[-72.61273,44.4327],[-72.60997,44.43501],[-72.60833,44.43601],[-72.60558,44.43682],[-72.605,44.43754],[-72.60144,44.4386],[-72.60088,44.43929],[-72.5962,44.44111],[-72.59277,44.44325],[-72.59188,44.44343],[-72.58679,44.44862],[-72.586,44.45008],[-72.58551,44.45308],[-72.58167,44.45701],[-72.58128,44.45858],[-72.58167,44.46045],[-72.586,44.46153],[-72.58681,44.46244],[-72.58693,44.46374],[-72.58753,44.46415],[-72.58774,44.46552],[-72.58868,44.46628],[-72.59048,44.46712],[-72.59444,44.46796],[-72.59614,44.4689],[-72.59802,44.4709],[-72.59985,44.47446],[-72.60519,44.47916],[-72.61056,44.48145],[-72.61229,44.48335],[-72.61243,44.48473],[-72.61381,44.48627],[-72.61628,44.48723],[-72.61718,44.48808],[-72.61826,44.48851],[-72.62016,44.48827],[-72.62157,44.48847],[-72.62317,44.48923],[-72.62599,44.48912],[-72.63072,44.49073],[-72.63457,44.49077],[-72.64282,44.49263],[-72.64732,44.49463],[-72.6521,44.49865],[-72.65284,44.4996],[-72.65318,44.50116],[-72.65188,44.50283],[-72.65159,44.5039],[-72.6528,44.50451],[-72.65292,44.50489],[-72.65249,44.5055],[-72.65283,44.50667],[-72.65131,44.50837],[-72.64925,44.50972],[-72.64848,44.51051],[-72.64811,44.5115],[-72.64693,44.51248],[-72.64687,44.51476],[-72.64488,44.51958],[-72.6453,44.52121],[-72.64653,44.52254],[-72.64631,44.52377],[-72.64463,44.52652],[-72.64525,44.52842],[-72.64589,44.5291],[-72.64681,44.52965],[-72.6479,44.5297],[-72.64956,44.52818],[-72.65125,44.52854],[-72.65335,44.52946],[-72.65397,44.52987],[-72.65411,44.5306],[-72.65564,44.53168],[-72.65525,44.53213],[-72.65286,44.53317],[-72.65453,44.53408],[-72.65707,44.53297],[-72.66049,44.53296],[-72.6634,44.53396],[-72.66412,44.53466],[-72.66555,44.53484],[-72.66527,44.53688],[-72.66719,44.54049],[-72.66782,44.54096],[-72.66933,44.54102],[-72.66993,44.54299],[-72.67095,44.54378],[-72.6728,44.54326],[-72.67847,44.5434],[-72.68164,44.54429],[-72.68357,44.54401],[-72.68366,44.5445],[-72.68477,44.54547],[-72.68503,44.54609],[-72.68628,44.54625],[-72.68981,44.54627],[-72.69173,44.54595],[-72.69621,44.54622],[-72.69838,44.54589],[-72.70081,44.54643],[-72.70144,44.547],[-72.70312,44.54732],[-72.70507,44.54837],[-72.7108,44.54717],[-72.71141,44.5473],[-72.71253,44.54857],[-72.71239,44.55013],[-72.7117,44.55205],[-72.71281,44.55281],[-72.71933,44.5543],[-72.72565,44.55272],[-72.72703,44.55396],[-72.72955,44.55405],[-72.73114,44.55446],[-72.73219,44.55603],[-72.73586,44.55829],[-72.73768,44.55821],[-72.7411,44.55959],[-72.74345,44.56096],[-72.74881,44.56101]]]}},{"type":"Feature","properties":{"huc10":"0430010305","name":"Mad River","areasqkm":372.81,"core":true,"contains":["Mad River (above Warren Village)","Bradley Brook","Clay Brook","Rice Brook","Mill Brook (Fayston)","Chase Brook (Fayston)","Slide Brook","Shepard Brook","Dowsville Brook","Austin Brook","Stetson Brook","Freeman Brook","Lincoln Brook","Folsom Brook","High Bridge Brook","Pine Brook","Welder Brook","Mills Brook"]},"geometry":{"type":"Polygon","coordinates":[[[-72.71593,44.30287],[-72.71683,44.30382],[-72.71853,44.30388],[-72.72119,44.30345],[-72.72282,44.30243],[-72.72336,44.30147],[-72.72566,44.30054],[-72.7305,44.3023],[-72.73213,44.30328],[-72.73357,44.30341],[-72.73468,44.3031],[-72.7377,44.30344],[-72.73832,44.30232],[-72.74046,44.30091],[-72.74473,44.30093],[-72.74688,44.29986],[-72.74695,44.29832],[-72.74795,44.29758],[-72.74805,44.29631],[-72.74947,44.29433],[-72.7515,44.29277],[-72.75193,44.29168],[-72.75342,44.29022],[-72.75462,44.2899],[-72.75683,44.2903],[-72.75876,44.29208],[-72.75925,44.29168],[-72.76099,44.29155],[-72.76382,44.29241],[-72.76495,44.29304],[-72.76592,44.29437],[-72.77022,44.29204],[-72.77725,44.29192],[-72.77816,44.29228],[-72.7794,44.29368],[-72.78097,44.29351],[-72.78308,44.2938],[-72.7856,44.29505],[-72.78796,44.29686],[-72.78866,44.29702],[-72.79026,44.29691],[-72.79304,44.2958],[-72.79587,44.29644],[-72.79806,44.29615],[-72.79938,44.2957],[-72.8011,44.29409],[-72.80294,44.29293],[-72.80673,44.29175],[-72.81279,44.29041],[-72.81667,44.29219],[-72.8197,44.29508],[-72.82259,44.29657],[-72.82557,44.29527],[-72.83008,44.29416],[-72.83285,44.29249],[-72.83821,44.29345],[-72.84078,44.29314],[-72.84211,44.29174],[-72.84456,44.29095],[-72.84702,44.29068],[-72.84823,44.29006],[-72.8506,44.28758],[-72.85319,44.28933],[-72.85433,44.28977],[-72.8594,44.28972],[-72.86078,44.2889],[-72.8619,44.28739],[-72.86238,44.28613],[-72.86416,44.28453],[-72.86507,44.28522],[-72.8674,44.28615],[-72.86978,44.28783],[-72.87236,44.28853],[-72.87275,44.28908],[-72.87416,44.28957],[-72.87951,44.29038],[-72.88116,44.29096],[-72.88186,44.29352],[-72.88366,44.29375],[-72.88373,44.29215],[-72.88428,44.29087],[-72.88575,44.28926],[-72.88702,44.28681],[-72.888,44.28622],[-72.89101,44.28537],[-72.89117,44.28457],[-72.89183,44.28378],[-72.89196,44.28163],[-72.89532,44.28141],[-72.89648,44.28015],[-72.8968,44.27857],[-72.89766,44.27764],[-72.89786,44.27692],[-72.8973,44.27525],[-72.89664,44.27431],[-72.89573,44.27388],[-72.89544,44.27285],[-72.8959,44.2718],[-72.89552,44.27042],[-72.8958,44.26754],[-72.89544,44.26618],[-72.8969,44.26488],[-72.89694,44.26374],[-72.89751,44.26272],[-72.89751,44.26176],[-72.8971,44.26143],[-72.90037,44.2612],[-72.90389,44.26034],[-72.90708,44.25768],[-72.91048,44.25857],[-72.91152,44.25775],[-72.90967,44.25512],[-72.90881,44.25175],[-72.9078,44.25056],[-72.90844,44.24822],[-72.90799,44.24717],[-72.90815,44.24545],[-72.90757,44.24385],[-72.90817,44.23996],[-72.90757,44.23756],[-72.90678,44.23655],[-72.90901,44.2342],[-72.90912,44.23354],[-72.90824,44.23172],[-72.9095,44.232],[-72.91198,44.2317],[-72.91273,44.23228],[-72.9146,44.2326],[-72.91654,44.23217],[-72.92051,44.23042],[-72.92172,44.22706],[-72.92514,44.22478],[-72.92676,44.22183],[-72.92724,44.22008],[-72.9291,44.21797],[-72.92944,44.21639],[-72.92889,44.21459],[-72.93059,44.21297],[-72.93091,44.21105],[-72.93191,44.20998],[-72.93228,44.20906],[-72.93569,44.20755],[-72.93607,44.20708],[-72.93573,44.20615],[-72.93607,44.20564],[-72.9355,44.20401],[-72.9348,44.19975],[-72.93572,44.19762],[-72.93518,44.19474],[-72.93123,44.19159],[-72.92888,44.18771],[-72.92892,44.18444],[-72.92947,44.18312],[-72.92926,44.18126],[-72.92992,44.18002],[-72.93173,44.1782],[-72.93184,44.17762],[-72.93143,44.17623],[-72.93054,44.17585],[-72.92992,44.17416],[-72.92978,44.16761],[-72.92917,44.16469],[-72.92959,44.16389],[-72.92958,44.16146],[-72.92858,44.15938],[-72.92859,44.15775],[-72.92775,44.1555],[-72.92852,44.15432],[-72.92777,44.15283],[-72.92714,44.15052],[-72.92593,44.14859],[-72.92633,44.14657],[-72.92798,44.14364],[-72.92813,44.14282],[-72.92797,44.14208],[-72.92702,44.14126],[-72.92827,44.14014],[-72.92773,44.13814],[-72.92769,44.1366],[-72.92911,44.13242],[-72.92889,44.12961],[-72.92809,44.12704],[-72.93055,44.12366],[-72.9345,44.12172],[-72.93613,44.12036],[-72.93547,44.11644],[-72.93385,44.11512],[-72.93341,44.11304],[-72.93429,44.11144],[-72.93713,44.10986],[-72.93656,44.10566],[-72.93535,44.10403],[-72.9354,44.10295],[-72.9345,44.10153],[-72.9305,44.0974],[-72.92908,44.09652],[-72.92866,44.09576],[-72.92894,44.09445],[-72.9277,44.09321],[-72.92774,44.09203],[-72.92863,44.09022],[-72.92753,44.08937],[-72.92735,44.08637],[-72.92595,44.0849],[-72.92634,44.08354],[-72.92783,44.08135],[-72.92736,44.07764],[-72.92593,44.0759],[-72.92421,44.07517],[-72.92005,44.07199],[-72.92078,44.07055],[-72.92089,44.06865],[-72.92139,44.06748],[-72.92312,44.06637],[-72.92422,44.06406],[-72.92554,44.06297],[-72.9259,44.06208],[-72.92693,44.06185],[-72.92722,44.0613],[-72.92654,44.05856],[-72.92567,44.05722],[-72.92493,44.05409],[-72.92597,44.05223],[-72.92272,44.05325],[-72.92078,44.05305],[-72.92002,44.05243],[-72.91529,44.05121],[-72.91171,44.04819],[-72.90976,44.04765],[-72.90799,44.04657],[-72.90542,44.04226],[-72.90408,44.04114],[-72.90372,44.04023],[-72.90408,44.03719],[-72.90304,44.03578],[-72.90344,44.0341],[-72.90313,44.03156],[-72.9036,44.03003],[-72.9046,44.02855],[-72.90353,44.02859],[-72.90274,44.02902],[-72.90144,44.03124],[-72.89887,44.03193],[-72.89716,44.03173],[-72.89298,44.03228],[-72.89088,44.03152],[-72.88522,44.03212],[-72.88433,44.03361],[-72.88042,44.03509],[-72.87598,44.03927],[-72.87348,44.03924],[-72.86885,44.04114],[-72.86654,44.0415],[-72.86546,44.04131],[-72.86226,44.03916],[-72.85867,44.03871],[-72.85609,44.03805],[-72.85372,44.03699],[-72.85171,44.03717],[-72.84734,44.04035],[-72.84317,44.03983],[-72.83641,44.03978],[-72.83592,44.03958],[-72.83574,44.03837],[-72.83481,44.03618],[-72.83448,44.03379],[-72.83264,44.03257],[-72.82926,44.03247],[-72.82697,44.03315],[-72.82277,44.03569],[-72.8175,44.0369],[-72.81566,44.0376],[-72.81015,44.04209],[-72.80804,44.04444],[-72.80784,44.04623],[-72.80681,44.04956],[-72.80678,44.05084],[-72.80703,44.0516],[-72.80816,44.05288],[-72.80613,44.05373],[-72.80491,44.05492],[-72.80314,44.05502],[-72.80112,44.05659],[-72.80206,44.05849],[-72.80331,44.0597],[-72.80395,44.06088],[-72.80666,44.0629],[-72.80712,44.06389],[-72.80728,44.06891],[-72.80844,44.07102],[-72.80802,44.07189],[-72.80736,44.07616],[-72.80768,44.07765],[-72.80718,44.07846],[-72.80675,44.07862],[-72.80484,44.07849],[-72.80329,44.07914],[-72.80293,44.07985],[-72.80302,44.08109],[-72.801,44.0835],[-72.80026,44.08487],[-72.79707,44.08722],[-72.79306,44.08779],[-72.79033,44.08917],[-72.79051,44.09079],[-72.7871,44.0936],[-72.78522,44.09795],[-72.78397,44.09873],[-72.78661,44.10164],[-72.78694,44.10249],[-72.787,44.10469],[-72.78754,44.10646],[-72.78819,44.10744],[-72.78767,44.10854],[-72.78787,44.11042],[-72.7875,44.11175],[-72.78852,44.11377],[-72.79007,44.11575],[-72.79017,44.11659],[-72.78882,44.1179],[-72.78558,44.11936],[-72.78463,44.12125],[-72.78389,44.12204],[-72.78181,44.12267],[-72.78192,44.1242],[-72.78032,44.12768],[-72.7803,44.12919],[-72.77837,44.13126],[-72.77857,44.13381],[-72.77772,44.13537],[-72.77743,44.13706],[-72.77802,44.1383],[-72.77871,44.14151],[-72.77766,44.14449],[-72.77758,44.14632],[-72.7758,44.14892],[-72.7736,44.1504],[-72.77246,44.15191],[-72.7727,44.1562],[-72.77083,44.16049],[-72.76932,44.16171],[-72.76864,44.16174],[-72.76543,44.1637],[-72.76441,44.16388],[-72.76307,44.16529],[-72.7621,44.16815],[-72.76121,44.16973],[-72.75963,44.17049],[-72.75871,44.17227],[-72.75673,44.17239],[-72.75448,44.17201],[-72.75458,44.17434],[-72.75414,44.17596],[-72.75194,44.17824],[-72.74946,44.18014],[-72.7494,44.18096],[-72.75102,44.1831],[-72.7511,44.18495],[-72.74869,44.18775],[-72.74741,44.18827],[-72.7459,44.19015],[-72.74382,44.19118],[-72.74125,44.19325],[-72.73941,44.1942],[-72.74052,44.19488],[-72.74144,44.19613],[-72.74146,44.19686],[-72.7422,44.19835],[-72.74215,44.20091],[-72.74396,44.20331],[-72.7443,44.20564],[-72.7419,44.21025],[-72.74045,44.21226],[-72.74044,44.21283],[-72.74089,44.21331],[-72.74289,44.2136],[-72.74538,44.21452],[-72.745,44.21542],[-72.74276,44.2177],[-72.73944,44.21926],[-72.73854,44.22086],[-72.73681,44.22149],[-72.73651,44.22256],[-72.73456,44.2244],[-72.73369,44.22628],[-72.73174,44.22626],[-72.73171,44.22572],[-72.73097,44.2248],[-72.72818,44.22442],[-72.7276,44.225],[-72.7276,44.22871],[-72.7271,44.22967],[-72.7256,44.23106],[-72.72381,44.23104],[-72.72286,44.23164],[-72.72179,44.23179],[-72.72019,44.23287],[-72.71863,44.23584],[-72.71815,44.2393],[-72.71775,44.23968],[-72.71672,44.23933],[-72.71573,44.24216],[-72.71467,44.24304],[-72.71571,44.24691],[-72.71244,44.24924],[-72.71257,44.2501],[-72.71347,44.25047],[-72.71396,44.25191],[-72.7139,44.25354],[-72.71218,44.25465],[-72.71171,44.25547],[-72.71012,44.25677],[-72.70992,44.25861],[-72.70834,44.26124],[-72.70729,44.2641],[-72.70672,44.26452],[-72.70573,44.26724],[-72.70418,44.26969],[-72.70375,44.26988],[-72.70234,44.27012],[-72.6988,44.26964],[-72.69735,44.26998],[-72.69603,44.27173],[-72.69549,44.27323],[-72.69594,44.27532],[-72.69417,44.27891],[-72.69541,44.28207],[-72.69437,44.2839],[-72.69486,44.28729],[-72.69423,44.28936],[-72.69542,44.29053],[-72.69544,44.29273],[-72.69709,44.2937],[-72.69802,44.29387],[-72.69729,44.29687],[-72.69585,44.29732],[-72.69617,44.29871],[-72.69783,44.29935],[-72.69829,44.30053],[-72.69908,44.30125],[-72.70205,44.30103],[-72.70399,44.30049],[-72.70608,44.30119],[-72.70712,44.30232],[-72.70863,44.30216],[-72.71082,44.30278],[-72.71139,44.30383],[-72.71311,44.30371],[-72.71378,44.30345],[-72.71399,44.30291],[-72.71593,44.30287]]]}},{"type":"Feature","properties":{"huc10":"0430010304","name":"Dog River-Winooski River","areasqkm":325.75,"core":true,"contains":["Jones Brook","Dog River mainstem","Felchner Brook","Stony Brook (Roxbury)","Bull Run","Sunny Brook (Roxbury)","Robinson Brook","Union Brook","Chase Brook (Dog River)","Cox Brook"]},"geometry":{"type":"Polygon","coordinates":[[[-72.65609,44.35218],[-72.6586,44.35436],[-72.65934,44.35451],[-72.6629,44.35276],[-72.66555,44.35069],[-72.66697,44.35013],[-72.669,44.34735],[-72.67157,44.34515],[-72.67106,44.34273],[-72.67195,44.34159],[-72.67442,44.33911],[-72.67542,44.33851],[-72.677,44.33826],[-72.67713,44.33785],[-72.67591,44.33554],[-72.67474,44.33527],[-72.6744,44.33437],[-72.6743,44.33268],[-72.67509,44.33069],[-72.67457,44.3287],[-72.6744,44.32611],[-72.66885,44.31874],[-72.66812,44.31736],[-72.66816,44.3167],[-72.66722,44.3143],[-72.66505,44.31269],[-72.66514,44.31237],[-72.66701,44.30977],[-72.66752,44.30838],[-72.67055,44.30779],[-72.67272,44.30586],[-72.67351,44.30332],[-72.6728,44.30217],[-72.67277,44.30131],[-72.67348,44.30055],[-72.67598,44.29997],[-72.6805,44.30018],[-72.68256,44.29803],[-72.68306,44.29844],[-72.68461,44.29865],[-72.68702,44.29696],[-72.68765,44.29713],[-72.68858,44.29818],[-72.69034,44.29827],[-72.69304,44.29952],[-72.69486,44.29946],[-72.69617,44.29871],[-72.69585,44.29732],[-72.69729,44.29687],[-72.69802,44.29387],[-72.69709,44.2937],[-72.69544,44.29273],[-72.69542,44.29053],[-72.69423,44.28936],[-72.69486,44.28729],[-72.69437,44.2839],[-72.69541,44.28207],[-72.69417,44.27891],[-72.69594,44.27532],[-72.69549,44.27323],[-72.69603,44.27173],[-72.69735,44.26998],[-72.6988,44.26964],[-72.70234,44.27012],[-72.70418,44.26969],[-72.70573,44.26724],[-72.70672,44.26452],[-72.70729,44.2641],[-72.70834,44.26124],[-72.70992,44.25861],[-72.71012,44.25677],[-72.71171,44.25547],[-72.71218,44.25465],[-72.7139,44.25354],[-72.71396,44.25191],[-72.71347,44.25047],[-72.71257,44.2501],[-72.71244,44.24924],[-72.71571,44.24691],[-72.71467,44.24304],[-72.71573,44.24216],[-72.71672,44.23933],[-72.71775,44.23968],[-72.71815,44.2393],[-72.71863,44.23584],[-72.72019,44.23287],[-72.72179,44.23179],[-72.72286,44.23164],[-72.72381,44.23104],[-72.7256,44.23106],[-72.7271,44.22967],[-72.7276,44.22871],[-72.7278,44.22466],[-72.72838,44.2244],[-72.73097,44.2248],[-72.73171,44.22572],[-72.73174,44.22626],[-72.73369,44.22628],[-72.73456,44.2244],[-72.73651,44.22256],[-72.73681,44.22149],[-72.73854,44.22086],[-72.73944,44.21926],[-72.74276,44.2177],[-72.74479,44.21583],[-72.74538,44.21452],[-72.74289,44.2136],[-72.74089,44.21331],[-72.74044,44.21283],[-72.74045,44.21226],[-72.7419,44.21025],[-72.7443,44.20564],[-72.74396,44.20331],[-72.74215,44.20091],[-72.7422,44.19835],[-72.74146,44.19686],[-72.74144,44.19613],[-72.74052,44.19488],[-72.73941,44.1942],[-72.74125,44.19325],[-72.74382,44.19118],[-72.7459,44.19015],[-72.74741,44.18827],[-72.74869,44.18775],[-72.7511,44.18495],[-72.75102,44.1831],[-72.7494,44.18096],[-72.74946,44.18014],[-72.75194,44.17824],[-72.75414,44.17596],[-72.75458,44.17434],[-72.75448,44.17201],[-72.75673,44.17239],[-72.75871,44.17227],[-72.75963,44.17049],[-72.76121,44.16973],[-72.7621,44.16815],[-72.76307,44.16529],[-72.76441,44.16388],[-72.76543,44.1637],[-72.76864,44.16174],[-72.76932,44.16171],[-72.77083,44.16049],[-72.7727,44.1562],[-72.77246,44.15191],[-72.7736,44.1504],[-72.7758,44.14892],[-72.77758,44.14632],[-72.77766,44.14449],[-72.77871,44.14151],[-72.77802,44.1383],[-72.77743,44.13706],[-72.77772,44.13537],[-72.77857,44.13381],[-72.77837,44.13126],[-72.7803,44.12919],[-72.78032,44.12768],[-72.78192,44.1242],[-72.78181,44.12267],[-72.78389,44.12204],[-72.78463,44.12125],[-72.78558,44.11936],[-72.78882,44.1179],[-72.79017,44.11659],[-72.79007,44.11575],[-72.78852,44.11377],[-72.7875,44.11175],[-72.78787,44.11042],[-72.78767,44.10854],[-72.78819,44.10744],[-72.78754,44.10646],[-72.787,44.10469],[-72.78694,44.10249],[-72.78661,44.10164],[-72.78397,44.09873],[-72.77745,44.09978],[-72.77443,44.09913],[-72.77054,44.09963],[-72.76598,44.09972],[-72.76483,44.10028],[-72.76164,44.10064],[-72.75881,44.10042],[-72.75677,44.09957],[-72.75439,44.09614],[-72.75376,44.09464],[-72.75202,44.09284],[-72.75116,44.09241],[-72.74835,44.09245],[-72.74496,44.0919],[-72.74483,44.09129],[-72.74405,44.09065],[-72.7429,44.08854],[-72.73734,44.08917],[-72.73216,44.0918],[-72.72765,44.09261],[-72.72469,44.09405],[-72.72308,44.09439],[-72.72086,44.09437],[-72.71723,44.09524],[-72.71583,44.09514],[-72.71551,44.09315],[-72.71258,44.09249],[-72.7111,44.09159],[-72.71081,44.09133],[-72.71065,44.08962],[-72.711,44.08755],[-72.70871,44.08648],[-72.70887,44.08531],[-72.7083,44.08428],[-72.70597,44.08271],[-72.70394,44.08186],[-72.70327,44.08063],[-72.70322,44.07928],[-72.70482,44.07757],[-72.70631,44.07511],[-72.70707,44.07458],[-72.70919,44.07395],[-72.70952,44.07222],[-72.7094,44.06779],[-72.70981,44.06675],[-72.71439,44.06646],[-72.71742,44.0673],[-72.71797,44.0672],[-72.7191,44.0653],[-72.72013,44.06549],[-72.7208,44.06488],[-72.7226,44.06199],[-72.72153,44.05933],[-72.72053,44.05816],[-72.71981,44.05419],[-72.71609,44.05099],[-72.71565,44.04917],[-72.7144,44.04877],[-72.71397,44.04753],[-72.7102,44.0451],[-72.70561,44.04585],[-72.70404,44.04674],[-72.70046,44.0468],[-72.69962,44.04768],[-72.69657,44.04826],[-72.69406,44.04813],[-72.69177,44.0484],[-72.68728,44.05062],[-72.68569,44.05041],[-72.68238,44.05075],[-72.68133,44.05225],[-72.67982,44.05246],[-72.67916,44.05321],[-72.67799,44.05301],[-72.67533,44.05532],[-72.67313,44.05774],[-72.67189,44.05994],[-72.67182,44.06146],[-72.67122,44.06234],[-72.6691,44.06447],[-72.6656,44.06649],[-72.66214,44.06554],[-72.65885,44.06562],[-72.65461,44.06634],[-72.6539,44.06612],[-72.65323,44.06441],[-72.65242,44.06363],[-72.65196,44.06224],[-72.64951,44.06158],[-72.65027,44.05975],[-72.6504,44.05804],[-72.64869,44.05717],[-72.64726,44.05708],[-72.64656,44.05667],[-72.64619,44.05585],[-72.64698,44.05493],[-72.64677,44.05415],[-72.64603,44.05422],[-72.64429,44.05539],[-72.64151,44.05583],[-72.63949,44.05701],[-72.63851,44.05719],[-72.63783,44.05569],[-72.63921,44.05185],[-72.6387,44.05063],[-72.63767,44.04935],[-72.6363,44.04841],[-72.63587,44.04774],[-72.63328,44.0496],[-72.63198,44.0497],[-72.63202,44.05039],[-72.63043,44.05284],[-72.62575,44.05345],[-72.625,44.05476],[-72.62012,44.056],[-72.61773,44.06036],[-72.61774,44.06182],[-72.61467,44.06662],[-72.61448,44.06779],[-72.61367,44.06881],[-72.61296,44.07156],[-72.61096,44.07224],[-72.60559,44.07266],[-72.60344,44.0737],[-72.60267,44.07547],[-72.60049,44.07808],[-72.59913,44.08119],[-72.5957,44.08605],[-72.59176,44.09329],[-72.5909,44.0958],[-72.59114,44.09776],[-72.59093,44.09897],[-72.58696,44.10166],[-72.58582,44.10472],[-72.58496,44.10511],[-72.58444,44.10597],[-72.58306,44.10953],[-72.58314,44.11116],[-72.58281,44.11165],[-72.58376,44.11225],[-72.58417,44.11434],[-72.5841,44.11593],[-72.58553,44.11749],[-72.58565,44.11817],[-72.58502,44.11965],[-72.5851,44.12025],[-72.5861,44.12176],[-72.58706,44.12241],[-72.58707,44.12278],[-72.58859,44.12364],[-72.58941,44.12503],[-72.5908,44.12606],[-72.59104,44.12731],[-72.59208,44.12803],[-72.59198,44.12905],[-72.59243,44.13065],[-72.59206,44.13174],[-72.59345,44.13162],[-72.59507,44.13085],[-72.59601,44.13131],[-72.59751,44.13058],[-72.59925,44.13047],[-72.60153,44.13085],[-72.603,44.13013],[-72.60755,44.13129],[-72.60983,44.1315],[-72.6103,44.13137],[-72.6115,44.12971],[-72.61344,44.12827],[-72.61512,44.12788],[-72.61525,44.12864],[-72.61385,44.13286],[-72.61409,44.13452],[-72.61524,44.13559],[-72.61578,44.13669],[-72.61573,44.13843],[-72.61515,44.13999],[-72.61947,44.14547],[-72.61911,44.14602],[-72.61906,44.14738],[-72.62028,44.15113],[-72.61946,44.15268],[-72.61949,44.15384],[-72.61869,44.15432],[-72.61777,44.15562],[-72.61742,44.15796],[-72.61562,44.15899],[-72.61424,44.1604],[-72.61382,44.16133],[-72.61364,44.16321],[-72.61503,44.16653],[-72.61209,44.16911],[-72.61141,44.17227],[-72.6102,44.17435],[-72.61017,44.17671],[-72.61093,44.17946],[-72.61218,44.18168],[-72.61196,44.18503],[-72.61256,44.18604],[-72.61283,44.18772],[-72.61355,44.18924],[-72.61452,44.19521],[-72.61515,44.19651],[-72.61662,44.19709],[-72.61661,44.19761],[-72.61745,44.19835],[-72.61739,44.19864],[-72.61637,44.19958],[-72.61528,44.20141],[-72.61424,44.20179],[-72.61361,44.20253],[-72.61253,44.20108],[-72.61157,44.20069],[-72.61056,44.20117],[-72.60724,44.20586],[-72.60525,44.20612],[-72.60502,44.20583],[-72.60519,44.20522],[-72.60484,44.2049],[-72.60323,44.2048],[-72.60295,44.20615],[-72.60205,44.20715],[-72.60027,44.20792],[-72.60028,44.20869],[-72.6013,44.20981],[-72.60112,44.21068],[-72.60229,44.21226],[-72.60213,44.21427],[-72.60156,44.21597],[-72.59933,44.21533],[-72.59833,44.21387],[-72.59637,44.21299],[-72.59561,44.21364],[-72.594,44.21381],[-72.59288,44.21439],[-72.59226,44.21532],[-72.59011,44.21669],[-72.58929,44.21837],[-72.58738,44.22026],[-72.58606,44.22215],[-72.58457,44.2233],[-72.58339,44.22829],[-72.58231,44.2295],[-72.58174,44.23132],[-72.5819,44.23218],[-72.58055,44.23403],[-72.57991,44.23572],[-72.58016,44.23865],[-72.57988,44.23921],[-72.57748,44.24097],[-72.57641,44.24336],[-72.57645,44.24372],[-72.58001,44.24726],[-72.5827,44.24914],[-72.58316,44.25163],[-72.58274,44.25343],[-72.58178,44.25428],[-72.57959,44.25794],[-72.57814,44.25903],[-72.57732,44.26252],[-72.57785,44.26408],[-72.57766,44.26489],[-72.57817,44.26541],[-72.57948,44.26575],[-72.58048,44.2686],[-72.58218,44.27058],[-72.58264,44.27216],[-72.58196,44.27284],[-72.5826,44.27351],[-72.58417,44.2738],[-72.58486,44.27443],[-72.58528,44.2765],[-72.58359,44.27726],[-72.58295,44.27798],[-72.58305,44.27832],[-72.58534,44.27891],[-72.58769,44.2803],[-72.5924,44.28188],[-72.59713,44.28148],[-72.5973,44.28108],[-72.59774,44.28098],[-72.60167,44.28097],[-72.60241,44.28123],[-72.6037,44.28317],[-72.60585,44.28484],[-72.60632,44.28596],[-72.60637,44.28688],[-72.60609,44.28736],[-72.6078,44.28898],[-72.60821,44.28981],[-72.60929,44.29033],[-72.60937,44.29158],[-72.61081,44.29277],[-72.61042,44.29644],[-72.61268,44.29855],[-72.61349,44.30034],[-72.61526,44.30135],[-72.6232,44.30432],[-72.62345,44.30615],[-72.6243,44.30846],[-72.62548,44.31025],[-72.62407,44.31198],[-72.61926,44.31366],[-72.61963,44.31497],[-72.62089,44.31633],[-72.62091,44.3172],[-72.6175,44.32003],[-72.61785,44.32176],[-72.61757,44.3226],[-72.61673,44.32317],[-72.61545,44.32334],[-72.61371,44.32487],[-72.61494,44.32697],[-72.61634,44.32815],[-72.61638,44.32921],[-72.61552,44.33113],[-72.6167,44.33219],[-72.61824,44.33471],[-72.6196,44.33526],[-72.62085,44.33524],[-72.62145,44.33659],[-72.62309,44.33866],[-72.62503,44.33943],[-72.6262,44.34133],[-72.6283,44.34325],[-72.6308,44.34463],[-72.63166,44.34591],[-72.63386,44.34737],[-72.63564,44.3478],[-72.6374,44.34773],[-72.63895,44.34842],[-72.64108,44.34828],[-72.64302,44.34862],[-72.64419,44.34824],[-72.64509,44.34896],[-72.64694,44.34942],[-72.64783,44.35033],[-72.64832,44.35186],[-72.65008,44.35257],[-72.65101,44.35349],[-72.65316,44.35219],[-72.65609,44.35218]]]}},{"type":"Feature","properties":{"huc10":"0430010302","name":"Headwaters Winooski River","areasqkm":520.36,"core":false,"contains":["Winooski River (above Lower Cabot)","Molly's Brook (above Marshfield Dam)","Kidders (Hooker) Brook","Nasmith Brook","Great Brook (Plainfield)","Dugar Brook"]},"geometry":{"type":"Polygon","coordinates":[[[-72.42189,44.47079],[-72.42189,44.4713],[-72.42122,44.47207],[-72.42125,44.47259],[-72.42233,44.47425],[-72.42454,44.47521],[-72.4269,44.47552],[-72.42995,44.47449],[-72.43467,44.47184],[-72.43548,44.4711],[-72.43896,44.47036],[-72.43959,44.46995],[-72.43992,44.46896],[-72.44396,44.46836],[-72.44423,44.46789],[-72.4436,44.4658],[-72.44379,44.46503],[-72.4467,44.46346],[-72.44676,44.46141],[-72.44879,44.46031],[-72.45069,44.45856],[-72.45186,44.45818],[-72.45418,44.45434],[-72.45579,44.45364],[-72.46044,44.44945],[-72.46091,44.44863],[-72.46107,44.44692],[-72.46237,44.44624],[-72.4637,44.44421],[-72.46348,44.44244],[-72.46391,44.44157],[-72.46394,44.44061],[-72.46561,44.43926],[-72.46694,44.43727],[-72.46861,44.43628],[-72.47438,44.43563],[-72.47678,44.43322],[-72.48089,44.43046],[-72.48211,44.42873],[-72.48308,44.42982],[-72.48502,44.43065],[-72.48765,44.42945],[-72.49005,44.4271],[-72.49161,44.42609],[-72.4916,44.42505],[-72.49247,44.42365],[-72.4959,44.42063],[-72.49667,44.41843],[-72.498,44.41725],[-72.49976,44.41414],[-72.503,44.41243],[-72.50421,44.4112],[-72.50501,44.40983],[-72.50506,44.40934],[-72.50477,44.40909],[-72.50266,44.40913],[-72.50127,44.40819],[-72.49957,44.40794],[-72.49614,44.40674],[-72.49526,44.40484],[-72.4951,44.40147],[-72.49389,44.4012],[-72.49479,44.39981],[-72.49664,44.39854],[-72.4971,44.39758],[-72.49679,44.39668],[-72.50046,44.39299],[-72.5021,44.39254],[-72.50224,44.39076],[-72.50273,44.38966],[-72.50434,44.38724],[-72.50578,44.38597],[-72.50751,44.38312],[-72.50961,44.37873],[-72.512,44.37614],[-72.51464,44.37469],[-72.51549,44.37383],[-72.51624,44.37133],[-72.51807,44.36767],[-72.51964,44.36665],[-72.52109,44.36486],[-72.5217,44.36513],[-72.52287,44.36458],[-72.52331,44.36402],[-72.5237,44.36252],[-72.52231,44.36131],[-72.52076,44.36061],[-72.52166,44.35857],[-72.5236,44.35597],[-72.52436,44.35433],[-72.52628,44.35309],[-72.52921,44.34743],[-72.53119,44.34462],[-72.53382,44.33937],[-72.53535,44.33426],[-72.53606,44.3329],[-72.53616,44.33198],[-72.53501,44.33136],[-72.53575,44.32836],[-72.53553,44.32767],[-72.5377,44.32399],[-72.53733,44.32294],[-72.53748,44.32016],[-72.53778,44.31987],[-72.53886,44.31989],[-72.5405,44.31664],[-72.54023,44.31488],[-72.54143,44.31298],[-72.5432,44.31264],[-72.54547,44.31323],[-72.54679,44.31073],[-72.54683,44.30947],[-72.54778,44.30872],[-72.54778,44.30788],[-72.54711,44.30617],[-72.54592,44.30494],[-72.54614,44.30392],[-72.54554,44.30302],[-72.54601,44.30178],[-72.54577,44.29973],[-72.54766,44.29678],[-72.54649,44.29587],[-72.5463,44.29408],[-72.54715,44.29311],[-72.54774,44.29171],[-72.55041,44.28989],[-72.55062,44.28946],[-72.55008,44.28836],[-72.55174,44.28725],[-72.552,44.28635],[-72.55554,44.2855],[-72.55783,44.28152],[-72.559,44.27841],[-72.56039,44.2776],[-72.56101,44.27667],[-72.56111,44.27632],[-72.56022,44.27533],[-72.56045,44.27338],[-72.5597,44.27138],[-72.56065,44.26637],[-72.56037,44.26537],[-72.55882,44.26337],[-72.55945,44.26026],[-72.5624,44.25777],[-72.56659,44.25568],[-72.56872,44.25801],[-72.56986,44.25848],[-72.57178,44.25888],[-72.57856,44.25885],[-72.57959,44.25794],[-72.58178,44.25428],[-72.58293,44.25314],[-72.58317,44.25194],[-72.58299,44.24972],[-72.58221,44.24862],[-72.58001,44.24726],[-72.57645,44.24372],[-72.5773,44.24126],[-72.57836,44.24014],[-72.57736,44.23942],[-72.57469,44.23905],[-72.57293,44.2395],[-72.57184,44.23924],[-72.56817,44.24017],[-72.56607,44.23961],[-72.56592,44.24053],[-72.56479,44.24079],[-72.56294,44.24314],[-72.55993,44.24409],[-72.55813,44.24402],[-72.55751,44.24132],[-72.55376,44.24106],[-72.54905,44.23985],[-72.55023,44.23605],[-72.54909,44.23437],[-72.54533,44.23471],[-72.54423,44.23434],[-72.5435,44.23334],[-72.54046,44.23292],[-72.54064,44.23074],[-72.54043,44.23046],[-72.53742,44.22944],[-72.53721,44.2285],[-72.53668,44.22821],[-72.5358,44.22812],[-72.53425,44.22891],[-72.53388,44.22941],[-72.53412,44.23074],[-72.5324,44.23108],[-72.53188,44.23107],[-72.5319,44.23013],[-72.53013,44.23038],[-72.52984,44.23096],[-72.52898,44.23039],[-72.52795,44.23045],[-72.52599,44.22897],[-72.52541,44.22795],[-72.52488,44.22777],[-72.52322,44.22845],[-72.52227,44.22838],[-72.52174,44.22767],[-72.52082,44.22832],[-72.51829,44.22762],[-72.51608,44.22831],[-72.51107,44.22769],[-72.50915,44.22789],[-72.50886,44.22703],[-72.50931,44.22483],[-72.50813,44.2234],[-72.50839,44.22188],[-72.50575,44.22147],[-72.5044,44.22293],[-72.50196,44.22342],[-72.50101,44.22235],[-72.49912,44.222],[-72.49859,44.22098],[-72.4975,44.22053],[-72.49409,44.2226],[-72.49386,44.22344],[-72.49138,44.22451],[-72.49181,44.22642],[-72.49154,44.2266],[-72.48592,44.22768],[-72.48541,44.22844],[-72.4836,44.22848],[-72.48022,44.22947],[-72.47975,44.23003],[-72.47963,44.23154],[-72.47904,44.23292],[-72.47577,44.23393],[-72.47077,44.2388],[-72.46742,44.23901],[-72.4656,44.24173],[-72.46491,44.24359],[-72.4638,44.24505],[-72.46224,44.24618],[-72.46188,44.24671],[-72.46189,44.24759],[-72.46109,44.24819],[-72.45918,44.24822],[-72.4556,44.24684],[-72.45379,44.24724],[-72.45204,44.24655],[-72.44963,44.24613],[-72.44808,44.24733],[-72.44669,44.24721],[-72.44479,44.2478],[-72.44075,44.24614],[-72.43818,44.24459],[-72.43108,44.24241],[-72.42511,44.23887],[-72.42476,44.23828],[-72.42533,44.23509],[-72.42508,44.23352],[-72.42539,44.23203],[-72.42489,44.23009],[-72.42365,44.22752],[-72.42242,44.22655],[-72.41924,44.22602],[-72.41701,44.22456],[-72.41786,44.22124],[-72.41567,44.22072],[-72.41418,44.22093],[-72.41345,44.21981],[-72.41346,44.21927],[-72.41119,44.21876],[-72.41197,44.21785],[-72.41234,44.21661],[-72.41151,44.21532],[-72.41207,44.21395],[-72.41196,44.21356],[-72.41094,44.21287],[-72.41075,44.21237],[-72.4114,44.21138],[-72.41106,44.21039],[-72.41043,44.20981],[-72.40881,44.20929],[-72.40532,44.20931],[-72.40443,44.20851],[-72.40331,44.20825],[-72.40127,44.20663],[-72.40129,44.20486],[-72.40065,44.20398],[-72.39466,44.20228],[-72.38911,44.19904],[-72.38424,44.2001],[-72.3815,44.20123],[-72.37951,44.20149],[-72.37817,44.20112],[-72.3722,44.19788],[-72.36519,44.19744],[-72.36198,44.19574],[-72.36096,44.19589],[-72.3593,44.19707],[-72.3584,44.19733],[-72.35294,44.19689],[-72.35001,44.19631],[-72.34544,44.2],[-72.3409,44.20277],[-72.33795,44.20413],[-72.33508,44.2048],[-72.33047,44.20522],[-72.32576,44.20651],[-72.32724,44.20738],[-72.32931,44.20918],[-72.3387,44.21376],[-72.34033,44.21589],[-72.34565,44.21663],[-72.34684,44.21746],[-72.35119,44.21944],[-72.35317,44.22081],[-72.35356,44.22142],[-72.35348,44.22217],[-72.35259,44.22316],[-72.35225,44.22427],[-72.35377,44.22572],[-72.35557,44.22848],[-72.35594,44.23027],[-72.35589,44.23302],[-72.35555,44.23417],[-72.35485,44.23499],[-72.35307,44.23584],[-72.34966,44.23664],[-72.34773,44.23774],[-72.3431,44.23394],[-72.34188,44.23351],[-72.33792,44.23386],[-72.33173,44.23538],[-72.32785,44.2385],[-72.32728,44.23966],[-72.32439,44.242],[-72.32346,44.24237],[-72.3145,44.24283],[-72.31488,44.24402],[-72.31674,44.24594],[-72.31965,44.24817],[-72.32232,44.24959],[-72.32304,44.25049],[-72.32354,44.25177],[-72.32343,44.25306],[-72.32206,44.25529],[-72.32175,44.25674],[-72.32178,44.25777],[-72.32242,44.25869],[-72.32259,44.25961],[-72.32047,44.26482],[-72.32123,44.2656],[-72.32316,44.26653],[-72.32427,44.26804],[-72.3259,44.26942],[-72.32579,44.26968],[-72.32319,44.26974],[-72.32066,44.2704],[-72.31691,44.27055],[-72.3115,44.2727],[-72.30678,44.27332],[-72.30961,44.27689],[-72.31028,44.27876],[-72.31028,44.28059],[-72.3114,44.28141],[-72.31282,44.28375],[-72.31538,44.28518],[-72.32141,44.28645],[-72.32428,44.28799],[-72.32703,44.28877],[-72.328,44.28993],[-72.32912,44.29251],[-72.33109,44.29363],[-72.33161,44.29426],[-72.33254,44.29841],[-72.33435,44.30043],[-72.33558,44.30299],[-72.3323,44.30399],[-72.33061,44.30402],[-72.3291,44.30344],[-72.32726,44.30131],[-72.32608,44.30083],[-72.32552,44.30073],[-72.32503,44.30132],[-72.32436,44.30134],[-72.32129,44.30063],[-72.32009,44.30112],[-72.32004,44.30318],[-72.31911,44.30384],[-72.31399,44.30505],[-72.3126,44.3048],[-72.31094,44.30402],[-72.30801,44.30197],[-72.30671,44.30037],[-72.30442,44.29923],[-72.30066,44.29894],[-72.2963,44.29999],[-72.29452,44.30095],[-72.29279,44.30274],[-72.29361,44.30455],[-72.29315,44.30776],[-72.29365,44.30886],[-72.2937,44.31392],[-72.2925,44.31535],[-72.29002,44.31714],[-72.2909,44.3202],[-72.29079,44.32098],[-72.29009,44.32306],[-72.2885,44.32356],[-72.28695,44.3236],[-72.28258,44.32019],[-72.27846,44.31916],[-72.27746,44.31687],[-72.27705,44.3166],[-72.27281,44.31635],[-72.27058,44.3151],[-72.26678,44.31386],[-72.2655,44.31296],[-72.26531,44.31314],[-72.26627,44.31465],[-72.26586,44.31732],[-72.26457,44.31844],[-72.26382,44.31858],[-72.2606,44.31796],[-72.25734,44.31805],[-72.2534,44.31665],[-72.25173,44.31675],[-72.2489,44.31798],[-72.2448,44.31806],[-72.24064,44.31861],[-72.23912,44.31817],[-72.23438,44.31454],[-72.23105,44.31343],[-72.22952,44.31541],[-72.22665,44.31663],[-72.22455,44.31678],[-72.22422,44.31879],[-72.22241,44.32245],[-72.22352,44.32552],[-72.22324,44.32716],[-72.22429,44.32957],[-72.22424,44.33085],[-72.22309,44.33445],[-72.22396,44.33599],[-72.2251,44.33722],[-72.22736,44.33837],[-72.22629,44.33971],[-72.22563,44.34226],[-72.22435,44.34303],[-72.22601,44.34628],[-72.22723,44.34719],[-72.22848,44.34762],[-72.22702,44.35041],[-72.22616,44.35131],[-72.22448,44.3518],[-72.22256,44.35182],[-72.22378,44.35538],[-72.22188,44.35772],[-72.22168,44.35957],[-72.22083,44.36227],[-72.22123,44.36312],[-72.22314,44.36447],[-72.22209,44.36636],[-72.22029,44.36852],[-72.22035,44.37035],[-72.21842,44.37235],[-72.21817,44.37298],[-72.21825,44.37526],[-72.21851,44.37606],[-72.22089,44.37871],[-72.22168,44.38069],[-72.22211,44.38203],[-72.22225,44.38628],[-72.22305,44.38691],[-72.22588,44.38789],[-72.22822,44.38942],[-72.22913,44.39185],[-72.22905,44.39364],[-72.22979,44.39612],[-72.23155,44.3989],[-72.23196,44.40026],[-72.23033,44.40296],[-72.22997,44.40513],[-72.23109,44.40581],[-72.23329,44.40591],[-72.23401,44.40675],[-72.23403,44.40831],[-72.23773,44.40924],[-72.23844,44.40984],[-72.23884,44.41061],[-72.23851,44.41154],[-72.23952,44.41362],[-72.24495,44.41407],[-72.24938,44.41247],[-72.25546,44.41312],[-72.26151,44.4113],[-72.26285,44.41224],[-72.26297,44.41465],[-72.26497,44.41742],[-72.26648,44.41892],[-72.26702,44.42177],[-72.26656,44.42389],[-72.26771,44.42448],[-72.26896,44.42731],[-72.27048,44.42843],[-72.26982,44.42957],[-72.26996,44.4317],[-72.26919,44.43377],[-72.27008,44.4349],[-72.26922,44.43643],[-72.2697,44.4375],[-72.2705,44.43762],[-72.27293,44.43987],[-72.27298,44.44043],[-72.27212,44.44208],[-72.27218,44.44255],[-72.27311,44.44415],[-72.27441,44.44508],[-72.2732,44.44587],[-72.27354,44.44752],[-72.27397,44.44768],[-72.27441,44.44868],[-72.27629,44.44912],[-72.27544,44.4495],[-72.27493,44.45045],[-72.2738,44.45111],[-72.27464,44.45214],[-72.27661,44.45255],[-72.27882,44.45381],[-72.28127,44.45363],[-72.28357,44.4554],[-72.28445,44.45573],[-72.28888,44.45547],[-72.28991,44.45568],[-72.29079,44.45539],[-72.292,44.45439],[-72.29507,44.45375],[-72.29479,44.45238],[-72.29583,44.45157],[-72.29602,44.45075],[-72.30077,44.45032],[-72.30096,44.45185],[-72.30148,44.45289],[-72.30268,44.45284],[-72.3049,44.45415],[-72.3066,44.45419],[-72.3074,44.45457],[-72.30828,44.45616],[-72.30774,44.45758],[-72.31026,44.45828],[-72.31059,44.45883],[-72.3104,44.45965],[-72.31272,44.45932],[-72.31375,44.45859],[-72.31686,44.458],[-72.31895,44.45683],[-72.32028,44.45763],[-72.32148,44.45913],[-72.32246,44.45964],[-72.3235,44.45966],[-72.32508,44.45755],[-72.32968,44.45705],[-72.32995,44.45501],[-72.33096,44.4542],[-72.33198,44.45193],[-72.33184,44.45037],[-72.33219,44.44962],[-72.33527,44.44879],[-72.33919,44.44663],[-72.33965,44.44597],[-72.33975,44.4443],[-72.3401,44.44406],[-72.34223,44.44258],[-72.34741,44.44],[-72.35009,44.43904],[-72.34985,44.43655],[-72.35016,44.43532],[-72.34929,44.4347],[-72.34892,44.43398],[-72.34957,44.43334],[-72.35048,44.43326],[-72.35089,44.43213],[-72.35177,44.43143],[-72.35325,44.42905],[-72.35819,44.4265],[-72.36528,44.42657],[-72.36593,44.42696],[-72.36649,44.42838],[-72.36753,44.42981],[-72.3679,44.43256],[-72.36862,44.43312],[-72.36882,44.43397],[-72.36975,44.43469],[-72.37166,44.43453],[-72.37468,44.43339],[-72.376,44.43346],[-72.37985,44.43181],[-72.38223,44.43176],[-72.38492,44.43264],[-72.38687,44.43282],[-72.38769,44.43352],[-72.39033,44.43423],[-72.3936,44.43465],[-72.39511,44.436],[-72.39539,44.43711],[-72.39506,44.43821],[-72.39595,44.43884],[-72.39594,44.43924],[-72.39459,44.43991],[-72.39433,44.44049],[-72.39343,44.44103],[-72.39195,44.44074],[-72.38894,44.44154],[-72.38888,44.44465],[-72.3877,44.4449],[-72.38609,44.44611],[-72.38688,44.44935],[-72.38792,44.45075],[-72.38634,44.45247],[-72.38451,44.45334],[-72.3839,44.45434],[-72.38442,44.45557],[-72.38416,44.45723],[-72.38465,44.45792],[-72.38681,44.45957],[-72.38806,44.46003],[-72.38935,44.46252],[-72.39102,44.46296],[-72.39195,44.46514],[-72.39273,44.4657],[-72.393,44.46707],[-72.39668,44.46889],[-72.39771,44.46657],[-72.40126,44.46403],[-72.40242,44.46245],[-72.40574,44.45994],[-72.40679,44.45977],[-72.41069,44.46102],[-72.4128,44.46021],[-72.41468,44.46011],[-72.41543,44.46114],[-72.41841,44.46204],[-72.41694,44.4633],[-72.41732,44.46381],[-72.41859,44.46417],[-72.4188,44.4646],[-72.41808,44.46619],[-72.41845,44.46791],[-72.41953,44.46923],[-72.42202,44.46995],[-72.42189,44.47079]]]}},{"type":"Feature","properties":{"huc10":"0430010301","name":"Stevens Branch","areasqkm":298.39,"core":false,"contains":["Jail Branch","Gunners Brook","Stevens Branch"]},"geometry":{"type":"Polygon","coordinates":[[[-72.45575,44.2469],[-72.45918,44.24822],[-72.46109,44.24819],[-72.46189,44.24759],[-72.46188,44.24671],[-72.46224,44.24618],[-72.4638,44.24505],[-72.46491,44.24359],[-72.4656,44.24173],[-72.46742,44.23901],[-72.47077,44.2388],[-72.47577,44.23393],[-72.47904,44.23292],[-72.47963,44.23154],[-72.47975,44.23003],[-72.48022,44.22947],[-72.4836,44.22848],[-72.48541,44.22844],[-72.48592,44.22768],[-72.49154,44.2266],[-72.49181,44.22642],[-72.49138,44.22451],[-72.49386,44.22344],[-72.49409,44.2226],[-72.4975,44.22053],[-72.49859,44.22098],[-72.49912,44.222],[-72.50101,44.22235],[-72.50196,44.22342],[-72.5044,44.22293],[-72.50575,44.22147],[-72.50839,44.22188],[-72.50813,44.2234],[-72.50931,44.22483],[-72.50886,44.22703],[-72.50915,44.22789],[-72.51107,44.22769],[-72.51608,44.22831],[-72.51829,44.22762],[-72.52082,44.22832],[-72.52174,44.22767],[-72.52227,44.22838],[-72.52322,44.22845],[-72.52488,44.22777],[-72.52541,44.22795],[-72.52599,44.22897],[-72.52795,44.23045],[-72.52898,44.23039],[-72.52984,44.23096],[-72.53013,44.23038],[-72.5319,44.23013],[-72.53188,44.23107],[-72.5324,44.23108],[-72.53412,44.23074],[-72.53388,44.22941],[-72.53425,44.22891],[-72.5358,44.22812],[-72.53668,44.22821],[-72.53721,44.2285],[-72.53742,44.22944],[-72.54043,44.23046],[-72.54064,44.23074],[-72.54046,44.23292],[-72.5435,44.23334],[-72.54423,44.23434],[-72.54533,44.23471],[-72.54909,44.23437],[-72.55023,44.23605],[-72.54905,44.23985],[-72.55376,44.24106],[-72.55751,44.24132],[-72.55813,44.24402],[-72.55993,44.24409],[-72.56294,44.24314],[-72.56479,44.24079],[-72.56592,44.24053],[-72.56607,44.23961],[-72.56817,44.24017],[-72.57184,44.23924],[-72.57293,44.2395],[-72.57469,44.23905],[-72.57736,44.23942],[-72.57836,44.24014],[-72.57988,44.23921],[-72.58021,44.23805],[-72.57991,44.23572],[-72.58055,44.23403],[-72.5819,44.23218],[-72.58174,44.23132],[-72.58231,44.2295],[-72.58339,44.22829],[-72.58457,44.2233],[-72.58606,44.22215],[-72.58738,44.22026],[-72.58929,44.21837],[-72.59011,44.21669],[-72.59226,44.21532],[-72.59288,44.21439],[-72.594,44.21381],[-72.59561,44.21364],[-72.59637,44.21299],[-72.59833,44.21387],[-72.59933,44.21533],[-72.60156,44.21597],[-72.60213,44.21427],[-72.60229,44.21226],[-72.60112,44.21068],[-72.6013,44.20981],[-72.60028,44.20869],[-72.60027,44.20792],[-72.60205,44.20715],[-72.60295,44.20615],[-72.60323,44.2048],[-72.60484,44.2049],[-72.60519,44.20522],[-72.60502,44.20583],[-72.60525,44.20612],[-72.60724,44.20586],[-72.61056,44.20117],[-72.61157,44.20069],[-72.61253,44.20108],[-72.61361,44.20253],[-72.61424,44.20179],[-72.61528,44.20141],[-72.61637,44.19958],[-72.61739,44.19864],[-72.61745,44.19835],[-72.61661,44.19761],[-72.61662,44.19709],[-72.61515,44.19651],[-72.61452,44.19521],[-72.61355,44.18924],[-72.61283,44.18772],[-72.61256,44.18604],[-72.61196,44.18503],[-72.61218,44.18168],[-72.61093,44.17946],[-72.61017,44.17671],[-72.6102,44.17435],[-72.61141,44.17227],[-72.61195,44.16939],[-72.61503,44.16653],[-72.61364,44.16321],[-72.61382,44.16133],[-72.61424,44.1604],[-72.61562,44.15899],[-72.61742,44.15796],[-72.61777,44.15562],[-72.61869,44.15432],[-72.61949,44.15384],[-72.61946,44.15268],[-72.62026,44.15144],[-72.61906,44.14738],[-72.61911,44.14602],[-72.61947,44.14547],[-72.61515,44.13999],[-72.61573,44.13843],[-72.61578,44.13669],[-72.61524,44.13559],[-72.61409,44.13452],[-72.61385,44.13286],[-72.61525,44.12864],[-72.61512,44.12788],[-72.61344,44.12827],[-72.6115,44.12971],[-72.6103,44.13137],[-72.60983,44.1315],[-72.60755,44.13129],[-72.603,44.13013],[-72.60153,44.13085],[-72.59925,44.13047],[-72.59751,44.13058],[-72.59601,44.13131],[-72.59507,44.13085],[-72.59345,44.13162],[-72.59206,44.13174],[-72.59243,44.13065],[-72.59198,44.12905],[-72.59208,44.12803],[-72.59104,44.12731],[-72.5908,44.12606],[-72.58941,44.12503],[-72.58859,44.12364],[-72.58707,44.12278],[-72.58706,44.12241],[-72.5861,44.12176],[-72.5851,44.12025],[-72.58502,44.11965],[-72.58565,44.11817],[-72.58553,44.11749],[-72.5841,44.11593],[-72.58417,44.11434],[-72.58376,44.11225],[-72.58281,44.11165],[-72.58314,44.11116],[-72.58328,44.10863],[-72.58444,44.10597],[-72.58032,44.10701],[-72.57938,44.106],[-72.57849,44.10567],[-72.57699,44.10595],[-72.57561,44.10665],[-72.57045,44.10536],[-72.57026,44.1052],[-72.57107,44.10399],[-72.57078,44.10151],[-72.56725,44.10025],[-72.569,44.09895],[-72.56945,44.09833],[-72.56934,44.09784],[-72.56746,44.09766],[-72.56721,44.09793],[-72.56627,44.0979],[-72.56122,44.09605],[-72.56118,44.09472],[-72.55929,44.09384],[-72.55884,44.09288],[-72.55826,44.09256],[-72.55606,44.09198],[-72.55562,44.09278],[-72.55482,44.09272],[-72.5528,44.09131],[-72.55286,44.09],[-72.55061,44.0879],[-72.55135,44.08689],[-72.55055,44.08479],[-72.54607,44.08148],[-72.54591,44.07911],[-72.54761,44.07584],[-72.5474,44.07311],[-72.54539,44.07272],[-72.54299,44.07338],[-72.5414,44.07339],[-72.54052,44.07266],[-72.54081,44.07112],[-72.54137,44.07016],[-72.53983,44.06912],[-72.5381,44.06917],[-72.53696,44.06975],[-72.5337,44.06959],[-72.52971,44.07206],[-72.52465,44.07431],[-72.52265,44.07591],[-72.51922,44.07565],[-72.51843,44.07496],[-72.51817,44.07336],[-72.51638,44.07453],[-72.51564,44.07467],[-72.51175,44.07405],[-72.51106,44.07438],[-72.51024,44.07532],[-72.50798,44.07937],[-72.50611,44.07988],[-72.50608,44.08134],[-72.50459,44.08376],[-72.50367,44.08627],[-72.50143,44.08926],[-72.50081,44.09159],[-72.49764,44.09557],[-72.4962,44.09574],[-72.49469,44.09768],[-72.49354,44.09807],[-72.49282,44.0979],[-72.49194,44.09712],[-72.49319,44.09589],[-72.49366,44.09492],[-72.4934,44.09419],[-72.49364,44.0937],[-72.49307,44.0922],[-72.48878,44.09135],[-72.48792,44.09055],[-72.48574,44.09089],[-72.48388,44.0903],[-72.48146,44.09018],[-72.48006,44.08934],[-72.47846,44.08976],[-72.47659,44.08964],[-72.4759,44.08941],[-72.47492,44.08821],[-72.47231,44.08706],[-72.46922,44.08844],[-72.46834,44.08816],[-72.46715,44.08833],[-72.466,44.08771],[-72.46404,44.08814],[-72.46246,44.08947],[-72.4611,44.09],[-72.46015,44.09116],[-72.45978,44.09255],[-72.45787,44.0939],[-72.45343,44.09306],[-72.45439,44.09249],[-72.45462,44.09186],[-72.45402,44.08962],[-72.45239,44.08823],[-72.4501,44.08808],[-72.44943,44.08763],[-72.44924,44.08678],[-72.44952,44.0855],[-72.4485,44.08471],[-72.44631,44.08193],[-72.44564,44.08055],[-72.44572,44.07846],[-72.4439,44.07717],[-72.44328,44.07716],[-72.44125,44.07802],[-72.44049,44.0779],[-72.43944,44.0763],[-72.43809,44.07547],[-72.43741,44.0744],[-72.43678,44.07402],[-72.43402,44.07501],[-72.4324,44.0752],[-72.42893,44.07457],[-72.42737,44.0737],[-72.42432,44.07501],[-72.41969,44.07341],[-72.41798,44.07472],[-72.4162,44.07546],[-72.40755,44.07317],[-72.40481,44.07102],[-72.40116,44.07241],[-72.39986,44.07264],[-72.39822,44.07241],[-72.39875,44.07373],[-72.39911,44.0761],[-72.39778,44.07719],[-72.39593,44.07957],[-72.39699,44.08115],[-72.39635,44.08301],[-72.3981,44.0834],[-72.39777,44.08581],[-72.39813,44.08662],[-72.3996,44.08738],[-72.39947,44.08859],[-72.39872,44.08932],[-72.39825,44.09139],[-72.39963,44.09215],[-72.40159,44.09207],[-72.40253,44.09284],[-72.40261,44.09349],[-72.40337,44.09424],[-72.4032,44.09515],[-72.40346,44.09582],[-72.40008,44.09714],[-72.39912,44.0984],[-72.39738,44.09985],[-72.39465,44.09899],[-72.39495,44.10015],[-72.39442,44.10105],[-72.38999,44.10496],[-72.39079,44.10742],[-72.39032,44.10884],[-72.38947,44.10989],[-72.38936,44.11147],[-72.38708,44.11322],[-72.38464,44.11325],[-72.38474,44.11476],[-72.38413,44.1164],[-72.38146,44.11836],[-72.38073,44.12024],[-72.38093,44.12086],[-72.37939,44.12242],[-72.37802,44.1255],[-72.37651,44.12557],[-72.37561,44.12594],[-72.37431,44.12798],[-72.37398,44.12922],[-72.37356,44.12949],[-72.36908,44.13117],[-72.3689,44.13188],[-72.36933,44.13387],[-72.37032,44.13613],[-72.36975,44.13852],[-72.37021,44.14093],[-72.36881,44.1422],[-72.36952,44.14493],[-72.36928,44.14565],[-72.36831,44.14671],[-72.36809,44.1484],[-72.36904,44.14977],[-72.37142,44.15191],[-72.37041,44.15187],[-72.36889,44.15242],[-72.35745,44.15889],[-72.35631,44.15981],[-72.35546,44.16069],[-72.35496,44.16269],[-72.35513,44.16414],[-72.35622,44.1656],[-72.35431,44.16578],[-72.3496,44.16824],[-72.3457,44.16869],[-72.33998,44.16836],[-72.33773,44.16901],[-72.33612,44.16995],[-72.33606,44.17092],[-72.33662,44.17185],[-72.34072,44.17624],[-72.34065,44.17842],[-72.34013,44.17954],[-72.33937,44.18329],[-72.3423,44.18374],[-72.34445,44.18522],[-72.34473,44.18596],[-72.34462,44.18693],[-72.34322,44.18952],[-72.34329,44.19034],[-72.34446,44.1915],[-72.34607,44.19215],[-72.35001,44.19631],[-72.35294,44.19689],[-72.3584,44.19733],[-72.3593,44.19707],[-72.36096,44.19589],[-72.36198,44.19574],[-72.36519,44.19744],[-72.3722,44.19788],[-72.37817,44.20112],[-72.37951,44.20149],[-72.3815,44.20123],[-72.38424,44.2001],[-72.38911,44.19904],[-72.39466,44.20228],[-72.40065,44.20398],[-72.40129,44.20486],[-72.40127,44.20663],[-72.40331,44.20825],[-72.40443,44.20851],[-72.40532,44.20931],[-72.40881,44.20929],[-72.41043,44.20981],[-72.41106,44.21039],[-72.4114,44.21138],[-72.41075,44.21237],[-72.41094,44.21287],[-72.41196,44.21356],[-72.41207,44.21395],[-72.41151,44.21532],[-72.41234,44.21661],[-72.41197,44.21785],[-72.41119,44.21876],[-72.41346,44.21927],[-72.41345,44.21981],[-72.41418,44.22093],[-72.41567,44.22072],[-72.41786,44.22124],[-72.41701,44.22456],[-72.41924,44.22602],[-72.42242,44.22655],[-72.42365,44.22752],[-72.42489,44.23009],[-72.42539,44.23203],[-72.42508,44.23352],[-72.42533,44.23509],[-72.42476,44.23828],[-72.42511,44.23887],[-72.43108,44.24241],[-72.43818,44.24459],[-72.44075,44.24614],[-72.44479,44.2478],[-72.44669,44.24721],[-72.44808,44.24733],[-72.44963,44.24613],[-72.45204,44.24655],[-72.45379,44.24724],[-72.45575,44.2469]]]}}]}